HXMT (HUIYAN)           
1 42758U 17034A   26106.29060303  .00002506  00000+0  13165-3 0  9990
2 42758  43.0131 167.5470 0030442 113.4948 246.9104 15.17933299488255
SAOCOM 1A               
1 43641U 18076A   26106.29636028  .00000282  00000+0  42033-4 0  9998
2 43641  97.8903 293.9386 0001496  90.0489 270.0896 14.82148008406936
H-2A R/B                
1 43682U 18084L   26106.17113807  .00010747  00000+0  24486-3 0  9992
2 43682  98.8674 331.6100 0023091 251.6609 108.2122 15.42911209411551
SAOCOM 1B               
1 46265U 20059A   26106.26009942 -.00000220  00000+0 -21058-4 0  9991
2 46265  97.8889 292.9973 0001436  86.2169 273.9208 14.82157907304317
CSS (TIANHE)            
1 48274U 21035A   26106.12836677  .00016257  00000+0  18121-3 0  9997
2 48274  41.4686 340.0449 0005797 217.8333 142.2100 15.62435361283464
COSMOS 2550             
1 48865U 21056A   26105.62043197 -.00000192  00000+0 -10652-7 0  9995
2 48865  67.1427 289.1686 0008363 268.2966  91.7230 15.33837730269121
CZ-2C R/B               
1 52794U 22058K   26106.28124281  .00023823  00000+0  31685-3 0  9990
2 52794  50.1858 124.4953 0040258   1.7750 358.3357 15.57046635215984
CZ-2C R/B               
1 54039U 22132E   26106.25687956  .00028032  00000+0  28065-3 0  9992
2 54039  97.2937 110.8175 0013430 315.5159  44.5021 15.65415309196240
GSLV R/B                
1 54149U 22138AN  26106.09002677  .00001261  00000+0  10664-3 0  9994
2 54149  87.3831 153.8347 0022185  22.5452 337.6749 14.96992574189524
XRISM                   
1 57800U 23137A   26106.21022950  .00003075  00000+0  16955-3 0  9995
2 57800  31.0028  40.8937 0007510  56.8343 303.3015 15.11920098143479
ACS3                    
1 59588U 24077B   26106.27539758  .00032386  00000+0  25058-1 0  9998
2 59588  97.1885  38.9449 0071649 358.8244   1.2742 13.91333724 99429
HTV-X1                  
1 66174U 25241A   26105.75475060  .00004725  00000+0  15908-3 0  9999
2 66174  51.6354 254.3357 0007513 316.3820  43.6567 15.32653838 26629
SZ-21 MODULE            
1 66515U 25246C   26105.96599745  .00025807  00000+0  19750-3 0  9996
2 66515  41.4747 333.3787 0004470 276.9705  83.0629 15.71515739 23936
