[{"OBJECT_NAME":"HXMT (HUIYAN)","OBJECT_ID":"2017-034A","EPOCH":"2026-04-16T06:58:28.101792","MEAN_MOTION":15.17933299,"ECCENTRICITY":0.00304429,"INCLINATION":43.0131,"RA_OF_ASC_NODE":167.547,"ARG_OF_PERICENTER":113.4948,"MEAN_ANOMALY":246.9104,"EPHEMERIS_TYPE":0,"CLASSIFICATION_TYPE":"U","NORAD_CAT_ID":42758,"ELEMENT_SET_NO":999,"REV_AT_EPOCH":48825,"BSTAR":0.00013164548,"MEAN_MOTION_DOT":2.506e-5,"MEAN_MOTION_DDOT":0},{"OBJECT_NAME":"SAOCOM 1A","OBJECT_ID":"2018-076A","EPOCH":"2026-04-16T07:06:45.528192","MEAN_MOTION":14.82148008,"ECCENTRICITY":0.00014966,"INCLINATION":97.8903,"RA_OF_ASC_NODE":293.9386,"ARG_OF_PERICENTER":90.0489,"MEAN_ANOMALY":270.0896,"EPHEMERIS_TYPE":0,"CLASSIFICATION_TYPE":"U","NORAD_CAT_ID":43641,"ELEMENT_SET_NO":999,"REV_AT_EPOCH":40693,"BSTAR":4.2032733e-5,"MEAN_MOTION_DOT":2.82e-6,"MEAN_MOTION_DDOT":0},{"OBJECT_NAME":"H-2A R/B","OBJECT_ID":"2018-084L","EPOCH":"2026-04-16T04:06:26.329248","MEAN_MOTION":15.42911209,"ECCENTRICITY":0.00230912,"INCLINATION":98.8674,"RA_OF_ASC_NODE":331.61,"ARG_OF_PERICENTER":251.6609,"MEAN_ANOMALY":108.2122,"EPHEMERIS_TYPE":0,"CLASSIFICATION_TYPE":"U","NORAD_CAT_ID":43682,"ELEMENT_SET_NO":999,"REV_AT_EPOCH":41155,"BSTAR":0.00024485668,"MEAN_MOTION_DOT":0.00010747,"MEAN_MOTION_DDOT":0},{"OBJECT_NAME":"SAOCOM 1B","OBJECT_ID":"2020-059A","EPOCH":"2026-04-16T06:14:32.589888","MEAN_MOTION":14.82157907,"ECCENTRICITY":0.00014368,"INCLINATION":97.8889,"RA_OF_ASC_NODE":292.9973,"ARG_OF_PERICENTER":86.2169,"MEAN_ANOMALY":273.9208,"EPHEMERIS_TYPE":0,"CLASSIFICATION_TYPE":"U","NORAD_CAT_ID":46265,"ELEMENT_SET_NO":999,"REV_AT_EPOCH":30431,"BSTAR":-2.1058189e-5,"MEAN_MOTION_DOT":-2.2e-6,"MEAN_MOTION_DDOT":0},{"OBJECT_NAME":"CSS (TIANHE)","OBJECT_ID":"2021-035A","EPOCH":"2026-04-16T03:04:50.888928","MEAN_MOTION":15.62435361,"ECCENTRICITY":0.00057973,"INCLINATION":41.4686,"RA_OF_ASC_NODE":340.0449,"ARG_OF_PERICENTER":217.8333,"MEAN_ANOMALY":142.21,"EPHEMERIS_TYPE":0,"CLASSIFICATION_TYPE":"U","NORAD_CAT_ID":48274,"ELEMENT_SET_NO":999,"REV_AT_EPOCH":28346,"BSTAR":0.00018120612,"MEAN_MOTION_DOT":0.00016257,"MEAN_MOTION_DDOT":0},{"OBJECT_NAME":"COSMOS 2550","OBJECT_ID":"2021-056A","EPOCH":"2026-04-15T14:53:25.322208","MEAN_MOTION":15.3383773,"ECCENTRICITY":0.0008363,"INCLINATION":67.1427,"RA_OF_ASC_NODE":289.1686,"ARG_OF_PERICENTER":268.2966,"MEAN_ANOMALY":91.723,"EPHEMERIS_TYPE":0,"CLASSIFICATION_TYPE":"U","NORAD_CAT_ID":48865,"ELEMENT_SET_NO":999,"REV_AT_EPOCH":26912,"BSTAR":-1.0652e-8,"MEAN_MOTION_DOT":-1.92e-6,"MEAN_MOTION_DDOT":0},{"OBJECT_NAME":"CZ-2C R/B","OBJECT_ID":"2022-058K","EPOCH":"2026-04-16T06:44:59.378784","MEAN_MOTION":15.57046635,"ECCENTRICITY":0.00402585,"INCLINATION":50.1858,"RA_OF_ASC_NODE":124.4953,"ARG_OF_PERICENTER":1.775,"MEAN_ANOMALY":358.3357,"EPHEMERIS_TYPE":0,"CLASSIFICATION_TYPE":"U","NORAD_CAT_ID":52794,"ELEMENT_SET_NO":999,"REV_AT_EPOCH":21598,"BSTAR":0.00031684858,"MEAN_MOTION_DOT":0.00023823,"MEAN_MOTION_DDOT":0},{"OBJECT_NAME":"CZ-2C R/B","OBJECT_ID":"2022-132E","EPOCH":"2026-04-16T06:09:54.393984","MEAN_MOTION":15.65415309,"ECCENTRICITY":0.00134301,"INCLINATION":97.2937,"RA_OF_ASC_NODE":110.8175,"ARG_OF_PERICENTER":315.5159,"MEAN_ANOMALY":44.5021,"EPHEMERIS_TYPE":0,"CLASSIFICATION_TYPE":"U","NORAD_CAT_ID":54039,"ELEMENT_SET_NO":999,"REV_AT_EPOCH":19624,"BSTAR":0.00028064991,"MEAN_MOTION_DOT":0.00028032,"MEAN_MOTION_DDOT":0},{"OBJECT_NAME":"GSLV R/B","OBJECT_ID":"2022-138AN","EPOCH":"2026-04-16T02:09:38.312928","MEAN_MOTION":14.96992574,"ECCENTRICITY":0.00221851,"INCLINATION":87.3831,"RA_OF_ASC_NODE":153.8347,"ARG_OF_PERICENTER":22.5452,"MEAN_ANOMALY":337.6749,"EPHEMERIS_TYPE":0,"CLASSIFICATION_TYPE":"U","NORAD_CAT_ID":54149,"ELEMENT_SET_NO":999,"REV_AT_EPOCH":18952,"BSTAR":0.0001066426,"MEAN_MOTION_DOT":1.261e-5,"MEAN_MOTION_DDOT":0},{"OBJECT_NAME":"XRISM","OBJECT_ID":"2023-137A","EPOCH":"2026-04-16T05:02:43.828800","MEAN_MOTION":15.11920098,"ECCENTRICITY":0.00075103,"INCLINATION":31.0028,"RA_OF_ASC_NODE":40.8937,"ARG_OF_PERICENTER":56.8343,"MEAN_ANOMALY":303.3015,"EPHEMERIS_TYPE":0,"CLASSIFICATION_TYPE":"U","NORAD_CAT_ID":57800,"ELEMENT_SET_NO":999,"REV_AT_EPOCH":14347,"BSTAR":0.00016954794,"MEAN_MOTION_DOT":3.075e-5,"MEAN_MOTION_DDOT":0},{"OBJECT_NAME":"ACS3","OBJECT_ID":"2024-077B","EPOCH":"2026-04-16T06:36:34.350912","MEAN_MOTION":13.91333724,"ECCENTRICITY":0.00716493,"INCLINATION":97.1885,"RA_OF_ASC_NODE":38.9449,"ARG_OF_PERICENTER":358.8244,"MEAN_ANOMALY":1.2742,"EPHEMERIS_TYPE":0,"CLASSIFICATION_TYPE":"U","NORAD_CAT_ID":59588,"ELEMENT_SET_NO":999,"REV_AT_EPOCH":9942,"BSTAR":0.025058319,"MEAN_MOTION_DOT":0.00032386,"MEAN_MOTION_DDOT":0},{"OBJECT_NAME":"HTV-X1","OBJECT_ID":"2025-241A","EPOCH":"2026-04-15T18:06:50.451840","MEAN_MOTION":15.32653838,"ECCENTRICITY":0.0007513,"INCLINATION":51.6354,"RA_OF_ASC_NODE":254.3357,"ARG_OF_PERICENTER":316.382,"MEAN_ANOMALY":43.6567,"EPHEMERIS_TYPE":0,"CLASSIFICATION_TYPE":"U","NORAD_CAT_ID":66174,"ELEMENT_SET_NO":999,"REV_AT_EPOCH":2662,"BSTAR":0.00015908169,"MEAN_MOTION_DOT":4.725e-5,"MEAN_MOTION_DDOT":0},{"OBJECT_NAME":"SZ-21 MODULE","OBJECT_ID":"2025-246C","EPOCH":"2026-04-15T23:11:02.179680","MEAN_MOTION":15.71515739,"ECCENTRICITY":0.00044703,"INCLINATION":41.4747,"RA_OF_ASC_NODE":333.3787,"ARG_OF_PERICENTER":276.9705,"MEAN_ANOMALY":83.0629,"EPHEMERIS_TYPE":0,"CLASSIFICATION_TYPE":"U","NORAD_CAT_ID":66515,"ELEMENT_SET_NO":999,"REV_AT_EPOCH":2393,"BSTAR":0.00019750179,"MEAN_MOTION_DOT":0.00025807,"MEAN_MOTION_DDOT":0}]
